[{"OBJECT_NAME":"ONEWEB-0182","OBJECT_ID":"2021-031U","EPOCH":"2026-03-09T16:42:32.721984","MEAN_MOTION":13.14502258,"ECCENTRICITY":0.00015336,"INCLINATION":87.8984,"RA_OF_ASC_NODE":309.5585,"ARG_OF_PERICENTER":72.9127,"MEAN_ANOMALY":287.217,"EPHEMERIS_TYPE":0,"CLASSIFICATION_TYPE":"U","NORAD_CAT_ID":48228,"ELEMENT_SET_NO":999,"REV_AT_EPOCH":23536,"BSTAR":-0.00056599097,"MEAN_MOTION_DOT":-1.97e-6,"MEAN_MOTION_DDOT":0},{"OBJECT_NAME":"THOR ABLESTAR DEB","OBJECT_ID":"1961-015JG","EPOCH":"2026-03-09T18:22:09.156000","MEAN_MOTION":13.2591808,"ECCENTRICITY":0.0280494,"INCLINATION":65.7984,"RA_OF_ASC_NODE":294.4514,"ARG_OF_PERICENTER":160.7952,"MEAN_ANOMALY":277.9047,"EPHEMERIS_TYPE":0,"CLASSIFICATION_TYPE":"U","NORAD_CAT_ID":3932,"ELEMENT_SET_NO":999,"REV_AT_EPOCH":13862,"BSTAR":0.0010602204,"MEAN_MOTION_DOT":5.05e-6,"MEAN_MOTION_DDOT":0}]
